O3B MPOWER F1           
1 54755U 22174A   23295.20812356 -.00000017  00000+0  00000+0 0  9997
2 54755   0.0511  19.0204 0005222 206.6708  17.3391  5.00118343 16883
